start=new Date('2022-04-02T00:00:00.000Z').valueOf();
sats=[{"NORAD_CAT_ID":"45212","OBJECT_ID":"2020-012AL","FILE":"3382618","OBJECT_TYPE":"PAYLOAD","PERIOD":"95.592","INCLINATION":"53.0573","MEAN_ELEMENT_THEORY":"SGP4","BSTAR":"0.00014918000000","COUNTRY_CODE":"US","SEMIMAJOR_AXIS":"6925.339","MEAN_ANOMALY":"304.5923","CLASSIFICATION_TYPE":"U","TIME_SYSTEM":"UTC","MEAN_MOTION":"15.06403027","CENTER_NAME":"EARTH","TLE_LINE1":"1 45212U 20012AL  22091.17497483  .00001941  00000-0  14918-3 0  9997","LAUNCH_DATE":"2020-02-17","TLE_LINE2":"2 45212  53.0573   4.3576 0001584  55.5215 304.5923 15.06403027117367","ARG_OF_PERICENTER":"55.5215","ECCENTRICITY":"0.00015840","EPHEMERIS_TYPE":"0","REV_AT_EPOCH":"11736","EPOCH":"2022-04-01T04:11:57.825312","RA_OF_ASC_NODE":"4.3576","PERIAPSIS":"546.107","MEAN_MOTION_DOT":"0.00001941","GP_ID":"200191790","OBJECT_NAME":"STARLINK-1231","SITE":"AFETR","MEAN_MOTION_DDOT":"0.0000000000000","APOAPSIS":"548.301","REF_FRAME":"TEME","DECAY_DATE":null,"ELEMENT_SET_NO":"999","RCS_SIZE":"LARGE"},{"INCLINATION":"53.0618","BSTAR":"0.00342420000000","COUNTRY_CODE":"US","MEAN_ELEMENT_THEORY":"SGP4","NORAD_CAT_ID":"45213","OBJECT_ID":"2020-012AM","PERIOD":"93.694","FILE":"3383778","OBJECT_TYPE":"PAYLOAD","TLE_LINE1":"1 45213U 20012AM  22091.88983866  .00127201  00000-0  34242-2 0  9990","LAUNCH_DATE":"2020-02-17","TIME_SYSTEM":"UTC","MEAN_MOTION":"15.36924766","CENTER_NAME":"EARTH","TLE_LINE2":"2 45213  53.0618 347.6796 0002949  36.4943 323.6260 15.36924766118602","SEMIMAJOR_AXIS":"6833.346","CLASSIFICATION_TYPE":"U","MEAN_ANOMALY":"323.6260","OBJECT_NAME":"STARLINK-1232","GP_ID":"200261665","MEAN_MOTION_DDOT":"0.0000000000000","SITE":"AFETR","REV_AT_EPOCH":"11860","RA_OF_ASC_NODE":"347.6796","EPOCH":"2022-04-01T21:21:22.060224","ARG_OF_PERICENTER":"36.4943","ECCENTRICITY":"0.00029490","EPHEMERIS_TYPE":"0","MEAN_MOTION_DOT":"0.00127201","PERIAPSIS":"453.196","ELEMENT_SET_NO":"999","RCS_SIZE":"LARGE","DECAY_DATE":null,"APOAPSIS":"457.227","REF_FRAME":"TEME"},{"TLE_LINE1":"1 45214U 20012AN  22091.81264496  .00006257  00000-0  43834-3 0  9990","LAUNCH_DATE":"2020-02-17","TIME_SYSTEM":"UTC","MEAN_MOTION":"15.06420874","CENTER_NAME":"EARTH","TLE_LINE2":"2 45214  53.0570   1.5061 0001704  64.3433 295.7731 15.06420874118399","SEMIMAJOR_AXIS":"6925.285","CLASSIFICATION_TYPE":"U","MEAN_ANOMALY":"295.7731","INCLINATION":"53.0570","COUNTRY_CODE":"US","BSTAR":"0.00043834000000","MEAN_ELEMENT_THEORY":"SGP4","NORAD_CAT_ID":"45214","OBJECT_ID":"2020-012AN","PERIOD":"95.591","FILE":"3383778","OBJECT_TYPE":"PAYLOAD","ELEMENT_SET_NO":"999","RCS_SIZE":"LARGE","DECAY_DATE":null,"APOAPSIS":"548.330","REF_FRAME":"TEME","OBJECT_NAME":"STARLINK-1233","GP_ID":"200262408","MEAN_MOTION_DDOT":"0.0000000000000","SITE":"AFETR","REV_AT_EPOCH":"11839","RA_OF_ASC_NODE":"1.5061","EPOCH":"2022-04-01T19:30:12.524544","ARG_OF_PERICENTER":"64.3433","ECCENTRICITY":"0.00017040","EPHEMERIS_TYPE":"0","MEAN_MOTION_DOT":"0.00006257","PERIAPSIS":"545.970"},{"SITE":"AFETR","MEAN_MOTION_DDOT":"0.0000000000000","OBJECT_NAME":"STARLINK-1245","GP_ID":"200261164","MEAN_MOTION_DOT":"0.00005252","PERIAPSIS":"546.139","ECCENTRICITY":"0.00014820","EPHEMERIS_TYPE":"0","ARG_OF_PERICENTER":"64.8070","EPOCH":"2022-04-01T17:49:20.734176","RA_OF_ASC_NODE":"1.8112","REV_AT_EPOCH":"11832","DECAY_DATE":null,"RCS_SIZE":"LARGE","ELEMENT_SET_NO":"999","REF_FRAME":"TEME","APOAPSIS":"548.191","MEAN_ELEMENT_THEORY":"SGP4","BSTAR":"0.00037104000000","COUNTRY_CODE":"US","INCLINATION":"53.0561","OBJECT_TYPE":"PAYLOAD","FILE":"3383778","PERIOD":"95.591","OBJECT_ID":"2020-012AP","NORAD_CAT_ID":"45215","TLE_LINE2":"2 45215  53.0561   1.8112 0001482  64.8070 295.3072 15.06415860118321","MEAN_MOTION":"15.06415860","CENTER_NAME":"EARTH","TIME_SYSTEM":"UTC","LAUNCH_DATE":"2020-02-17","TLE_LINE1":"1 45215U 20012AP  22091.74260109  .00005252  00000-0  37104-3 0  9997","MEAN_ANOMALY":"295.3072","CLASSIFICATION_TYPE":"U","SEMIMAJOR_AXIS":"6925.300"},{"EPOCH":"2022-04-01T20:23:16.933920","RA_OF_ASC_NODE":"1.3383","REV_AT_EPOCH":"11840","ECCENTRICITY":"0.00018140","EPHEMERIS_TYPE":"0","ARG_OF_PERICENTER":"62.5394","MEAN_MOTION_DOT":"0.00003798","PERIAPSIS":"545.906","OBJECT_NAME":"STARLINK-1271","GP_ID":"200260913","MEAN_MOTION_DDOT":"0.0000000000000","SITE":"AFETR","APOAPSIS":"548.419","REF_FRAME":"TEME","RCS_SIZE":"LARGE","ELEMENT_SET_NO":"999","DECAY_DATE":null,"NORAD_CAT_ID":"45217","OBJECT_ID":"2020-012AR","PERIOD":"95.591","OBJECT_TYPE":"PAYLOAD","FILE":"3383778","INCLINATION":"53.0558","COUNTRY_CODE":"US","BSTAR":"0.00027364000000","MEAN_ELEMENT_THEORY":"SGP4","SEMIMAJOR_AXIS":"6925.298","CLASSIFICATION_TYPE":"U","MEAN_ANOMALY":"297.5779","LAUNCH_DATE":"2020-02-17","TLE_LINE1":"1 45217U 20012AR  22091.84950155  .00003798  00000-0  27364-3 0  9997","MEAN_MOTION":"15.06416638","CENTER_NAME":"EARTH","TIME_SYSTEM":"UTC","TLE_LINE2":"2 45217  53.0558   1.3383 0001814  62.5394 297.5779 15.06416638118408"},{"SEMIMAJOR_AXIS":"6925.309","CLASSIFICATION_TYPE":"U","MEAN_ANOMALY":"293.9342","TLE_LINE1":"1 45219U 20012AT  22091.84765428  .00002866  00000-0  21116-3 0  9990","LAUNCH_DATE":"2020-02-17","TIME_SYSTEM":"UTC","MEAN_MOTION":"15.06412858","CENTER_NAME":"EARTH","TLE_LINE2":"2 45219  53.0553 341.3431 0001447  66.1799 293.9342 15.06412858118694","NORAD_CAT_ID":"45219","OBJECT_ID":"2020-012AT","PERIOD":"95.591","FILE":"3383778","OBJECT_TYPE":"PAYLOAD","INCLINATION":"53.0553","BSTAR":"0.00021116000000","COUNTRY_CODE":"US","MEAN_ELEMENT_THEORY":"SGP4","APOAPSIS":"548.176","REF_FRAME":"TEME","ELEMENT_SET_NO":"999","RCS_SIZE":"LARGE","DECAY_DATE":null,"REV_AT_EPOCH":"11869","RA_OF_ASC_NODE":"341.3431","EPOCH":"2022-04-01T20:20:37.329792","ARG_OF_PERICENTER":"66.1799","EPHEMERIS_TYPE":"0","ECCENTRICITY":"0.00014470","MEAN_MOTION_DOT":"0.00002866","PERIAPSIS":"546.172","GP_ID":"200262166","OBJECT_NAME":"STARLINK-1187","MEAN_MOTION_DDOT":"0.0000000000000","SITE":"AFETR"},{"COUNTRY_CODE":"US","BSTAR":"0.00042063000000","MEAN_ELEMENT_THEORY":"SGP4","INCLINATION":"53.0560","PERIOD":"95.591","OBJECT_TYPE":"PAYLOAD","FILE":"3383778","NORAD_CAT_ID":"45221","OBJECT_ID":"2020-012AV","TLE_LINE2":"2 45221  53.0560 341.3355 0001331  82.9624 277.1516 15.06419720118686","LAUNCH_DATE":"2020-02-17","TLE_LINE1":"1 45221U 20012AV  22091.85134075  .00005993  00000-0  42063-3 0  9990","MEAN_MOTION":"15.06419720","CENTER_NAME":"EARTH","TIME_SYSTEM":"UTC","CLASSIFICATION_TYPE":"U","MEAN_ANOMALY":"277.1516","SEMIMAJOR_AXIS":"6925.288","MEAN_MOTION_DDOT":"0.0000000000000","SITE":"AFETR","GP_ID":"200261908","OBJECT_NAME":"STARLINK-1189","MEAN_MOTION_DOT":"0.00005993","PERIAPSIS":"546.231","RA_OF_ASC_NODE":"341.3355","EPOCH":"2022-04-01T20:25:55.840800","REV_AT_EPOCH":"11868","EPHEMERIS_TYPE":"0","ECCENTRICITY":"0.00013310","ARG_OF_PERICENTER":"82.9624","RCS_SIZE":"LARGE","ELEMENT_SET_NO":"999","DECAY_DATE":null,"REF_FRAME":"TEME","APOAPSIS":"548.075"},{"PERIAPSIS":"546.098","MEAN_MOTION_DOT":"0.00003227","RA_OF_ASC_NODE":"341.2925","EPOCH":"2022-04-01T20:36:32.660640","REV_AT_EPOCH":"11868","EPHEMERIS_TYPE":"0","ECCENTRICITY":"0.00015560","ARG_OF_PERICENTER":"59.3069","MEAN_MOTION_DDOT":"0.0000000000000","SITE":"AFETR","OBJECT_NAME":"STARLINK-1191","GP_ID":"200260664","REF_FRAME":"TEME","APOAPSIS":"548.254","RCS_SIZE":"LARGE","ELEMENT_SET_NO":"999","DECAY_DATE":null,"PERIOD":"95.591","OBJECT_TYPE":"PAYLOAD","FILE":"3383778","OBJECT_ID":"2020-012AW","NORAD_CAT_ID":"45222","COUNTRY_CODE":"US","BSTAR":"0.00023539000000","MEAN_ELEMENT_THEORY":"SGP4","INCLINATION":"53.0541","CLASSIFICATION_TYPE":"U","MEAN_ANOMALY":"300.8074","SEMIMAJOR_AXIS":"6925.311","TLE_LINE2":"2 45222  53.0541 341.2925 0001556  59.3069 300.8074 15.06412257118689","LAUNCH_DATE":"2020-02-17","TLE_LINE1":"1 45222U 20012AW  22091.85871135  .00003227  00000-0  23539-3 0  9991","MEAN_MOTION":"15.06412257","CENTER_NAME":"EARTH","TIME_SYSTEM":"UTC"},{"CLASSIFICATION_TYPE":"U","MEAN_ANOMALY":"299.4801","SEMIMAJOR_AXIS":"6925.273","TLE_LINE2":"2 45223  53.0546 341.2056 0001543  60.6342 299.4801 15.06424523118696","TLE_LINE1":"1 45223U 20012AX  22091.88082727  .00008057  00000-0  55882-3 0  9998","LAUNCH_DATE":"2020-02-17","TIME_SYSTEM":"UTC","CENTER_NAME":"EARTH","MEAN_MOTION":"15.06424523","PERIOD":"95.591","FILE":"3383778","OBJECT_TYPE":"PAYLOAD","OBJECT_ID":"2020-012AX","NORAD_CAT_ID":"45223","BSTAR":"0.00055882000000","COUNTRY_CODE":"US","MEAN_ELEMENT_THEORY":"SGP4","INCLINATION":"53.0546","REF_FRAME":"TEME","APOAPSIS":"548.207","ELEMENT_SET_NO":"999","RCS_SIZE":"LARGE","DECAY_DATE":null,"PERIAPSIS":"546.070","MEAN_MOTION_DOT":"0.00008057","REV_AT_EPOCH":"11869","RA_OF_ASC_NODE":"341.2056","EPOCH":"2022-04-01T21:08:23.476128","ARG_OF_PERICENTER":"60.6342","EPHEMERIS_TYPE":"0","ECCENTRICITY":"0.00015430","MEAN_MOTION_DDOT":"0.0000000000000","SITE":"AFETR","OBJECT_NAME":"STARLINK-1212","GP_ID":"200261414"},{"MEAN_ANOMALY":"33.0551","CLASSIFICATION_TYPE":"U","SEMIMAJOR_AXIS":"6717.364","TLE_LINE2":"2 45224  53.0462 201.3018 0005234 327.0142  33.0551 15.76900926120507","MEAN_MOTION":"15.76900926","CENTER_NAME":"EARTH","TIME_SYSTEM":"UTC","LAUNCH_DATE":"2020-02-17","TLE_LINE1":"1 45224U 20012AY  22091.59297847  .00031786  00000-0  19585-3 0  9993","OBJECT_TYPE":"PAYLOAD","FILE":"3383353","PERIOD":"91.318","NORAD_CAT_ID":"45224","OBJECT_ID":"2020-012AY","MEAN_ELEMENT_THEORY":"SGP4","BSTAR":"0.00019585000000","COUNTRY_CODE":"US","INCLINATION":"53.0462","REF_FRAME":"TEME","APOAPSIS":"342.745","DECAY_DATE":null,"RCS_SIZE":"LARGE","ELEMENT_SET_NO":"999","MEAN_MOTION_DOT":"0.00031786","PERIAPSIS":"335.713","ECCENTRICITY":"0.00052340","EPHEMERIS_TYPE":"0","ARG_OF_PERICENTER":"327.0142","EPOCH":"2022-04-01T14:13:53.339808","RA_OF_ASC_NODE":"201.3018","REV_AT_EPOCH":"12050","SITE":"AFETR","MEAN_MOTION_DDOT":"0.0000000000000","GP_ID":"200227869","OBJECT_NAME":"STARLINK-1214"}];
